STARLETTE               
1 07646U 75010A   22363.52120823 -.00000131  00000+0  79005-5 0  9996
2 07646  49.8256  60.2790 0205749 201.9466 157.2517 13.82315357419468
LAGEOS 1                
1 08820U 76039A   22363.07607519 -.00000005  00000+0  00000+0 0  9998
2 08820 109.8468 105.6754 0045131 213.6570 240.7391  6.38664965832284
AJISAI (EGS)            
1 16908U 86061A   22363.56053394 -.00000092  00000+0  36766-4 0  9999
2 16908  50.0105  79.1083 0011395 198.2319 186.9176 12.44498302322795
COSMOS 1989 (ETALON 1)  
1 19751U 89001C   22363.44824701  .00000016  00000+0  00000+0 0  9992
2 19751  64.3564 115.6767 0023961 213.8559 113.0189  2.13156117264383
COSMOS 2024 (ETALON 2)  
1 20026U 89039C   22362.77535508 -.00000051  00000+0  00000+0 0  9999
2 20026  65.5117 353.7955 0018665 218.7847 254.0072  2.13204204261509
LAGEOS 2                
1 22195U 92070B   22363.54879899 -.00000009  00000+0  00000+0 0  9990
2 22195  52.6769 346.5134 0138319 354.0680 118.7363  6.47293489713487
STELLA                  
1 22824U 93061B   22363.56303385 -.00000041  00000+0  23589-5 0  9993
2 22824  98.9491  29.2682 0005635 318.0021 164.9472 14.27396349524218
LARES                   
1 38077U 12006A   22363.46007202 -.00000048  00000+0 -61068-4 0  9999
2 38077  69.4976 294.2171 0008933 173.0662 187.0528 12.54931119498370
